{
  "type": "FeatureCollection",
  "features": [
    {
      "type": "Feature",
      "properties": {
        "norad_id": 36385,
        "name": "COSMOS 2251 DEB",
        "group": "cosmos-2251-debris",
        "lat": 72.27132908088429,
        "lon": -154.8354581845246,
        "alt_km": 706.1355540968816,
        "timestamp": "2025-12-19T14:48:36.645415+00:00",
        "meta_object_name": "COSMOS 2251 DEB",
        "meta_object_id": "1993-036AZN",
        "meta_epoch": "2025-12-18T20:30:15.909120",
        "meta_mean_motion": 14.72670627,
        "meta_eccentricity": 0.01414565,
        "meta_inclination": 73.9692,
        "meta_ra_of_asc_node": 142.5811,
        "meta_arg_of_pericenter": 315.6212,
        "meta_mean_anomaly": 43.369,
        "meta_ephemeris_type": 0,
        "meta_classification_type": "U",
        "meta_norad_cat_id": 36385,
        "meta_element_set_no": 999,
        "meta_rev_at_epoch": 85192,
        "meta_bstar": 0.00099972778,
        "meta_mean_motion_dot": 7.44e-05,
        "meta_mean_motion_ddot": 0,
        "tle_line1": "1 36385U 93036AZN 25352.85435080  .00007440  00000+0  99973-3 0  9990",
        "tle_line2": "2 36385  73.9692 142.5811 0141456 315.6212  43.3690 14.72670627851928"
      },
      "geometry": {
        "type": "Point",
        "coordinates": [
          -154.8354581845246,
          72.27132908088429
        ]
      }
    },
    {
      "type": "Feature",
      "properties": {
        "norad_id": 36420,
        "name": "COSMOS 2251 DEB",
        "group": "cosmos-2251-debris",
        "lat": -24.37509062808005,
        "lon": 90.29128989139487,
        "alt_km": 784.4368841053456,
        "timestamp": "2025-12-19T14:48:36.645426+00:00",
        "meta_object_name": "COSMOS 2251 DEB",
        "meta_object_id": "1993-036AZT",
        "meta_epoch": "2025-12-16T13:10:06.446208",
        "meta_mean_motion": 14.36904576,
        "meta_eccentricity": 0.00182942,
        "meta_inclination": 74.0376,
        "meta_ra_of_asc_node": 268.4783,
        "meta_arg_of_pericenter": 355.3587,
        "meta_mean_anomaly": 184.0352,
        "meta_ephemeris_type": 0,
        "meta_classification_type": "U",
        "meta_norad_cat_id": 36420,
        "meta_element_set_no": 999,
        "meta_rev_at_epoch": 85091,
        "meta_bstar": 0.0001395606,
        "meta_mean_motion_dot": 3.87e-06,
        "meta_mean_motion_ddot": 0,
        "tle_line1": "1 36420U 93036AZT 25350.54868572  .00000387  00000+0  13956-3 0  9990",
        "tle_line2": "2 36420  74.0376 268.4783 0018294 355.3587 184.0352 14.36904576850913"
      },
      "geometry": {
        "type": "Point",
        "coordinates": [
          90.29128989139487,
          -24.37509062808005
        ]
      }
    },
    {
      "type": "Feature",
      "properties": {
        "norad_id": 36430,
        "name": "COSMOS 2251 DEB",
        "group": "cosmos-2251-debris",
        "lat": 1.782187697689517,
        "lon": 96.55819881991775,
        "alt_km": 832.9561355438136,
        "timestamp": "2025-12-19T14:48:36.645437+00:00",
        "meta_object_name": "COSMOS 2251 DEB",
        "meta_object_id": "1993-036BAD",
        "meta_epoch": "2025-12-17T14:02:08.838528",
        "meta_mean_motion": 14.27804633,
        "meta_eccentricity": 0.00972961,
        "meta_inclination": 74.0048,
        "meta_ra_of_asc_node": 99.7344,
        "meta_arg_of_pericenter": 248.7934,
        "meta_mean_anomaly": 110.2799,
        "meta_ephemeris_type": 0,
        "meta_classification_type": "U",
        "meta_norad_cat_id": 36430,
        "meta_element_set_no": 999,
        "meta_rev_at_epoch": 64626,
        "meta_bstar": 0.00041842357,
        "meta_mean_motion_dot": 1.061e-05,
        "meta_mean_motion_ddot": 0,
        "tle_line1": "1 36430U 93036BAD 25351.58482452  .00001061  00000+0  41842-3 0  9990",
        "tle_line2": "2 36430  74.0048  99.7344 0097296 248.7934 110.2799 14.27804633646268"
      },
      "geometry": {
        "type": "Point",
        "coordinates": [
          96.55819881991775,
          1.782187697689517
        ]
      }
    },
    {
      "type": "Feature",
      "properties": {
        "norad_id": 36437,
        "name": "COSMOS 2251 DEB",
        "group": "cosmos-2251-debris",
        "lat": -10.385515889422564,
        "lon": 17.548244939020467,
        "alt_km": 664.6025654298983,
        "timestamp": "2025-12-19T14:48:36.645447+00:00",
        "meta_object_name": "COSMOS 2251 DEB",
        "meta_object_id": "1993-036BAL",
        "meta_epoch": "2025-12-17T10:37:14.678400",
        "meta_mean_motion": 14.70771964,
        "meta_eccentricity": 0.00232298,
        "meta_inclination": 73.9427,
        "meta_ra_of_asc_node": 24.8176,
        "meta_arg_of_pericenter": 256.1896,
        "meta_mean_anomaly": 103.669,
        "meta_ephemeris_type": 0,
        "meta_classification_type": "U",
        "meta_norad_cat_id": 36437,
        "meta_element_set_no": 999,
        "meta_rev_at_epoch": 66120,
        "meta_bstar": 0.001110469,
        "meta_mean_motion_dot": 6.78e-05,
        "meta_mean_motion_ddot": 0,
        "tle_line1": "1 36437U 93036BAL 25351.44253100  .00006780  00000+0  11105-2 0  9999",
        "tle_line2": "2 36437  73.9427  24.8176 0023229 256.1896 103.6690 14.70771964661206"
      },
      "geometry": {
        "type": "Point",
        "coordinates": [
          17.548244939020467,
          -10.385515889422564
        ]
      }
    },
    {
      "type": "Feature",
      "properties": {
        "norad_id": 36439,
        "name": "COSMOS 2251 DEB",
        "group": "cosmos-2251-debris",
        "lat": 56.4526822459418,
        "lon": -179.9544047266662,
        "alt_km": 1241.4546109361372,
        "timestamp": "2025-12-19T14:48:36.645458+00:00",
        "meta_object_name": "COSMOS 2251 DEB",
        "meta_object_id": "1993-036BAN",
        "meta_epoch": "2025-12-16T11:25:24.463776",
        "meta_mean_motion": 13.47804354,
        "meta_eccentricity": 0.04280619,
        "meta_inclination": 73.9685,
        "meta_ra_of_asc_node": 30.7531,
        "meta_arg_of_pericenter": 1.8523,
        "meta_mean_anomaly": 358.4044,
        "meta_ephemeris_type": 0,
        "meta_classification_type": "U",
        "meta_norad_cat_id": 36439,
        "meta_element_set_no": 999,
        "meta_rev_at_epoch": 58663,
        "meta_bstar": 0.0011092098,
        "meta_mean_motion_dot": 1.175e-05,
        "meta_mean_motion_ddot": 0,
        "tle_line1": "1 36439U 93036BAN 25350.47597759  .00001175  00000+0  11092-2 0  9992",
        "tle_line2": "2 36439  73.9685  30.7531 0428061   1.8523 358.4044 13.47804354586639"
      },
      "geometry": {
        "type": "Point",
        "coordinates": [
          -179.9544047266662,
          56.4526822459418
        ]
      }
    },
    {
      "type": "Feature",
      "properties": {
        "norad_id": 36441,
        "name": "COSMOS 2251 DEB",
        "group": "cosmos-2251-debris",
        "lat": -71.61293622639326,
        "lon": -143.78648000814695,
        "alt_km": 626.8447762913474,
        "timestamp": "2025-12-19T14:48:36.645468+00:00",
        "meta_object_name": "COSMOS 2251 DEB",
        "meta_object_id": "1993-036BAQ",
        "meta_epoch": "2025-12-18T05:47:29.908032",
        "meta_mean_motion": 15.06846048,
        "meta_eccentricity": 0.01082047,
        "meta_inclination": 73.8354,
        "meta_ra_of_asc_node": 338.3111,
        "meta_arg_of_pericenter": 76.0854,
        "meta_mean_anomaly": 285.2342,
        "meta_ephemeris_type": 0,
        "meta_classification_type": "U",
        "meta_norad_cat_id": 36441,
        "meta_element_set_no": 999,
        "meta_rev_at_epoch": 87048,
        "meta_bstar": 0.0004365334,
        "meta_mean_motion_dot": 7.404e-05,
        "meta_mean_motion_ddot": 0,
        "tle_line1": "1 36441U 93036BAQ 25352.24131838  .00007404  00000+0  43653-3 0  9994",
        "tle_line2": "2 36441  73.8354 338.3111 0108204  76.0854 285.2342 15.06846048870480"
      },
      "geometry": {
        "type": "Point",
        "coordinates": [
          -143.78648000814695,
          -71.61293622639326
        ]
      }
    },
    {
      "type": "Feature",
      "properties": {
        "norad_id": 36442,
        "name": "COSMOS 2251 DEB",
        "group": "cosmos-2251-debris",
        "lat": -60.22003222385864,
        "lon": -5.688797213287678,
        "alt_km": 467.71748381118687,
        "timestamp": "2025-12-19T14:48:36.645478+00:00",
        "meta_object_name": "COSMOS 2251 DEB",
        "meta_object_id": "1993-036BAR",
        "meta_epoch": "2025-12-13T10:09:44.142048",
        "meta_mean_motion": 15.30178674,
        "meta_eccentricity": 0.00085328,
        "meta_inclination": 73.9496,
        "meta_ra_of_asc_node": 37.7946,
        "meta_arg_of_pericenter": 324.6725,
        "meta_mean_anomaly": 35.3911,
        "meta_ephemeris_type": 0,
        "meta_classification_type": "U",
        "meta_norad_cat_id": 36442,
        "meta_element_set_no": 999,
        "meta_rev_at_epoch": 85926,
        "meta_bstar": 0.0075856442,
        "meta_mean_motion_dot": 0.00228665,
        "meta_mean_motion_ddot": 0,
        "tle_line1": "1 36442U 93036BAR 25347.42342757  .00228665  00000+0  75856-2 0  9996",
        "tle_line2": "2 36442  73.9496  37.7946 0008532 324.6725  35.3911 15.30178674859266"
      },
      "geometry": {
        "type": "Point",
        "coordinates": [
          -5.688797213287678,
          -60.22003222385864
        ]
      }
    }
  ]
}